{
  "type": "FeatureCollection",
  "features": [
    {
      "type": "Feature",
      "properties": {
        "norad_id": 33376,
        "name": "GALAXY 19 (G-19)",
        "group": "intelsat",
        "lat": -0.035485586126080514,
        "lon": -114.531982861292,
        "alt_km": 35776.95121123158,
        "timestamp": "2025-12-21T16:47:54.396582+00:00",
        "meta_object_name": "GALAXY 19 (G-19)",
        "meta_object_id": "2008-045A",
        "meta_epoch": "2025-12-21T06:31:28.348032",
        "meta_mean_motion": 1.00271314,
        "meta_eccentricity": 0.0002535,
        "meta_inclination": 0.0168,
        "meta_ra_of_asc_node": 317.9619,
        "meta_arg_of_pericenter": 317.7913,
        "meta_mean_anomaly": 175.208,
        "meta_ephemeris_type": 0,
        "meta_classification_type": "U",
        "meta_norad_cat_id": 33376,
        "meta_element_set_no": 999,
        "meta_rev_at_epoch": 6312,
        "meta_bstar": 0,
        "meta_mean_motion_dot": -1.16e-06,
        "meta_mean_motion_ddot": 0,
        "tle_line1": "1 33376U 08045A   25355.27185588 -.00000116  00000+0  00000+0 0  9990",
        "tle_line2": "2 33376   0.0168 317.9619 0002535 317.7913 175.2080  1.00271314 63125"
      },
      "geometry": {
        "type": "Point",
        "coordinates": [
          -114.531982861292,
          -0.035485586126080514
        ]
      }
    },
    {
      "type": "Feature",
      "properties": {
        "norad_id": 35493,
        "name": "FM-5",
        "group": "intelsat",
        "lat": -0.028536807388195598,
        "lon": -103.62071437125017,
        "alt_km": 35781.10462412958,
        "timestamp": "2025-12-21T16:47:54.396595+00:00",
        "meta_object_name": "FM-5",
        "meta_object_id": "2009-034A",
        "meta_epoch": "2025-12-21T08:28:43.569120",
        "meta_mean_motion": 1.00283426,
        "meta_eccentricity": 0.0001051,
        "meta_inclination": 0.025,
        "meta_ra_of_asc_node": 287.6168,
        "meta_arg_of_pericenter": 261.9331,
        "meta_mean_anomaly": 301.6753,
        "meta_ephemeris_type": 0,
        "meta_classification_type": "U",
        "meta_norad_cat_id": 35493,
        "meta_element_set_no": 999,
        "meta_rev_at_epoch": 4486,
        "meta_bstar": 0,
        "meta_mean_motion_dot": -1.79e-06,
        "meta_mean_motion_ddot": 0,
        "tle_line1": "1 35493U 09034A   25355.35328205 -.00000179  00000+0  00000+0 0  9994",
        "tle_line2": "2 35493   0.0250 287.6168 0001051 261.9331 301.6753  1.00283426 44866"
      },
      "geometry": {
        "type": "Point",
        "coordinates": [
          -103.62071437125017,
          -0.028536807388195598
        ]
      }
    },
    {
      "type": "Feature",
      "properties": {
        "norad_id": 36097,
        "name": "INTELSAT 14 (IS-14)",
        "group": "intelsat",
        "lat": -0.03419728040891046,
        "lon": -62.50287215407926,
        "alt_km": 35776.346714311556,
        "timestamp": "2025-12-21T16:47:54.396606+00:00",
        "meta_object_name": "INTELSAT 14 (IS-14)",
        "meta_object_id": "2009-064A",
        "meta_epoch": "2025-12-21T11:16:21.315360",
        "meta_mean_motion": 1.00270479,
        "meta_eccentricity": 0.0002482,
        "meta_inclination": 0.0097,
        "meta_ra_of_asc_node": 18.3515,
        "meta_arg_of_pericenter": 263.7416,
        "meta_mean_anomaly": 292.2909,
        "meta_ephemeris_type": 0,
        "meta_classification_type": "U",
        "meta_norad_cat_id": 36097,
        "meta_element_set_no": 999,
        "meta_rev_at_epoch": 5882,
        "meta_bstar": 0,
        "meta_mean_motion_dot": -2.51e-06,
        "meta_mean_motion_ddot": 0,
        "tle_line1": "1 36097U 09064A   25355.46969115 -.00000251  00000+0  00000+0 0  9992",
        "tle_line2": "2 36097   0.0097  18.3515 0002482 263.7416 292.2909  1.00270479 58827"
      },
      "geometry": {
        "type": "Point",
        "coordinates": [
          -62.50287215407926,
          -0.03419728040891046
        ]
      }
    },
    {
      "type": "Feature",
      "properties": {
        "norad_id": 36106,
        "name": "INTELSAT 15 (IS-15)",
        "group": "intelsat",
        "lat": 0.0421270779776333,
        "lon": 67.66015568616136,
        "alt_km": 35793.69730171251,
        "timestamp": "2025-12-21T16:47:54.396618+00:00",
        "meta_object_name": "INTELSAT 15 (IS-15)",
        "meta_object_id": "2009-067A",
        "meta_epoch": "2025-12-21T11:53:25.265184",
        "meta_mean_motion": 1.00271705,
        "meta_eccentricity": 0.0002159,
        "meta_inclination": 0.0178,
        "meta_ra_of_asc_node": 349.9665,
        "meta_arg_of_pericenter": 291.7912,
        "meta_mean_anomaly": 72.074,
        "meta_ephemeris_type": 0,
        "meta_classification_type": "U",
        "meta_norad_cat_id": 36106,
        "meta_element_set_no": 999,
        "meta_rev_at_epoch": 3944,
        "meta_bstar": 0,
        "meta_mean_motion_dot": -1.63e-06,
        "meta_mean_motion_ddot": 0,
        "tle_line1": "1 36106U 09067A   25355.49543131 -.00000163  00000+0  00000+0 0  9997",
        "tle_line2": "2 36106   0.0178 349.9665 0002159 291.7912  72.0740  1.00271705 39447"
      },
      "geometry": {
        "type": "Point",
        "coordinates": [
          67.66015568616136,
          0.0421270779776333
        ]
      }
    },
    {
      "type": "Feature",
      "properties": {
        "norad_id": 36131,
        "name": "DIRECTV 12",
        "group": "intelsat",
        "lat": -0.006860065682660953,
        "lon": -120.23583993958147,
        "alt_km": 35787.078364858884,
        "timestamp": "2025-12-21T16:47:54.396630+00:00",
        "meta_object_name": "DIRECTV 12",
        "meta_object_id": "2009-075A",
        "meta_epoch": "2025-12-20T21:18:05.647104",
        "meta_mean_motion": 1.00270531,
        "meta_eccentricity": 3.37e-05,
        "meta_inclination": 0.0166,
        "meta_ra_of_asc_node": 99.1337,
        "meta_arg_of_pericenter": 257.3135,
        "meta_mean_anomaly": 310.0782,
        "meta_ephemeris_type": 0,
        "meta_classification_type": "U",
        "meta_norad_cat_id": 36131,
        "meta_element_set_no": 999,
        "meta_rev_at_epoch": 4476,
        "meta_bstar": 0,
        "meta_mean_motion_dot": -8e-07,
        "meta_mean_motion_ddot": 0,
        "tle_line1": "1 36131U 09075A   25354.88756536 -.00000080  00000+0  00000+0 0  9999",
        "tle_line2": "2 36131   0.0166  99.1337 0000337 257.3135 310.0782  1.00270531 44761"
      },
      "geometry": {
        "type": "Point",
        "coordinates": [
          -120.23583993958147,
          -0.006860065682660953
        ]
      }
    },
    {
      "type": "Feature",
      "properties": {
        "norad_id": 36397,
        "name": "INTELSAT 16 (IS-16)",
        "group": "intelsat",
        "lat": -0.03878586809392565,
        "lon": -93.7090784627648,
        "alt_km": 35778.5708812302,
        "timestamp": "2025-12-21T16:47:54.396641+00:00",
        "meta_object_name": "INTELSAT 16 (IS-16)",
        "meta_object_id": "2010-006A",
        "meta_epoch": "2025-12-21T05:59:18.303360",
        "meta_mean_motion": 1.00271275,
        "meta_eccentricity": 0.0001825,
        "meta_inclination": 0.0124,
        "meta_ra_of_asc_node": 352.4988,
        "meta_arg_of_pericenter": 279.1643,
        "meta_mean_anomaly": 192.0446,
        "meta_ephemeris_type": 0,
        "meta_classification_type": "U",
        "meta_norad_cat_id": 36397,
        "meta_element_set_no": 999,
        "meta_rev_at_epoch": 5787,
        "meta_bstar": 0,
        "meta_mean_motion_dot": -2.22e-06,
        "meta_mean_motion_ddot": 0,
        "tle_line1": "1 36397U 10006A   25355.24951740 -.00000222  00000+0  00000+0 0  9992",
        "tle_line2": "2 36397   0.0124 352.4988 0001825 279.1643 192.0446  1.00271275 57872"
      },
      "geometry": {
        "type": "Point",
        "coordinates": [
          -93.7090784627648,
          -0.03878586809392565
        ]
      }
    },
    {
      "type": "Feature",
      "properties": {
        "norad_id": 37185,
        "name": "XM-5",
        "group": "intelsat",
        "lat": -0.058485825789089785,
        "lon": -132.68673959751638,
        "alt_km": 35784.75591515853,
        "timestamp": "2025-12-21T16:47:54.396653+00:00",
        "meta_object_name": "XM-5",
        "meta_object_id": "2010-053A",
        "meta_epoch": "2025-12-20T21:14:35.981088",
        "meta_mean_motion": 1.00269291,
        "meta_eccentricity": 0.0002244,
        "meta_inclination": 0.0661,
        "meta_ra_of_asc_node": 270.9496,
        "meta_arg_of_pericenter": 238.8649,
        "meta_mean_anomaly": 143.3591,
        "meta_ephemeris_type": 0,
        "meta_classification_type": "U",
        "meta_norad_cat_id": 37185,
        "meta_element_set_no": 999,
        "meta_rev_at_epoch": 5569,
        "meta_bstar": 0,
        "meta_mean_motion_dot": 0,
        "meta_mean_motion_ddot": 0,
        "tle_line1": "1 37185U 10053A   25354.88513867  .00000000  00000+0  00000+0 0  9996",
        "tle_line2": "2 37185   0.0661 270.9496 0002244 238.8649 143.3591  1.00269291 55699"
      },
      "geometry": {
        "type": "Point",
        "coordinates": [
          -132.68673959751638,
          -0.058485825789089785
        ]
      }
    }
  ]
}